[{"OBJECT_NAME":"POLYITAN-1","OBJECT_ID":"2014-033AJ","EPOCH":"2026-03-09T22:27:50.258304","MEAN_MOTION":15.29568085,"ECCENTRICITY":0.00093607,"INCLINATION":98.1053,"RA_OF_ASC_NODE":86.0432,"ARG_OF_PERICENTER":127.248,"MEAN_ANOMALY":232.9614,"EPHEMERIS_TYPE":0,"CLASSIFICATION_TYPE":"U","NORAD_CAT_ID":40042,"ELEMENT_SET_NO":999,"REV_AT_EPOCH":63840,"BSTAR":0.00083772474,"MEAN_MOTION_DOT":0.00024003,"MEAN_MOTION_DDOT":0},{"OBJECT_NAME":"STARLINK-35619","OBJECT_ID":"2025-245Y","EPOCH":"2026-03-09T21:36:38.383200","MEAN_MOTION":15.30196026,"ECCENTRICITY":0.00010516,"INCLINATION":53.1568,"RA_OF_ASC_NODE":282.5662,"ARG_OF_PERICENTER":88.295,"MEAN_ANOMALY":271.8171,"EPHEMERIS_TYPE":0,"CLASSIFICATION_TYPE":"U","NORAD_CAT_ID":66256,"ELEMENT_SET_NO":999,"REV_AT_EPOCH":2129,"BSTAR":0.00064158049,"MEAN_MOTION_DOT":0.00018688,"MEAN_MOTION_DDOT":0}]
